{"type": "FeatureCollection", "features": [ {"type": "Feature", "properties": {"norad_id": 36684, "name": "FENGYUN 1C DEB", "group": "fengyun-1c-debris", "lat": -23.58900071105902, "lon": 90.30304969788038, "alt_km": 586.6233303432, "timestamp": "2025-12-18T17:50:15.245130+00:00", "meta": {"OBJECT_NAME": "FENGYUN 1C DEB", "OBJECT_ID": "1999-025DZE", "EPOCH": "2025-12-18T05:06:39.031200", "MEAN_MOTION": 14.96945082, "ECCENTRICITY": 0.00184785, "INCLINATION": 99.4565, "RA_OF_ASC_NODE": 85.489, "ARG_OF_PERICENTER": 90.6821, "MEAN_ANOMALY": 269.6512, "EPHEMERIS_TYPE": 0, "CLASSIFICATION_TYPE": "U", "NORAD_CAT_ID": 36684, "ELEMENT_SET_NO": 999, "REV_AT_EPOCH": 65983, "BSTAR": 0.004262867, "MEAN_MOTION_DOT": 0.00049407, "MEAN_MOTION_DDOT": 0}, "tle": {"line1": "1 36684U 99025DZE 25352.21295175  .00049407  00000+0  42629-2 0  9999", "line2": "2 36684  99.4565  85.4890 0018478  90.6821 269.6512 14.96945082659835"}}, "geometry": {"type": "Point", "coordinates": [90.30304969788038, -23.58900071105902]}}, {"type": "Feature", "properties": {"norad_id": 36686, "name": "FENGYUN 1C DEB", "group": "fengyun-1c-debris", "lat": 21.509128716672166, "lon": 8.42124969724693, "alt_km": 677.8195398628295, "timestamp": "2025-12-18T17:50:15.245140+00:00", "meta": {"OBJECT_NAME": "FENGYUN 1C DEB", "OBJECT_ID": "1999-025DZG", "EPOCH": "2025-12-15T19:13:56.169984", "MEAN_MOTION": 14.77248655, "ECCENTRICITY": 0.0105012, "INCLINATION": 99.0012, "RA_OF_ASC_NODE": 181.5592, "ARG_OF_PERICENTER": 43.8778, "MEAN_ANOMALY": 317.071, "EPHEMERIS_TYPE": 0, "CLASSIFICATION_TYPE": "U", "NORAD_CAT_ID": 36686, "ELEMENT_SET_NO": 999, "REV_AT_EPOCH": 65897, "BSTAR": 0.00049760395, "MEAN_MOTION_DOT": 3.796e-05, "MEAN_MOTION_DDOT": 0}, "tle": {"line1": "1 36686U 99025DZG 25349.80134456  .00003796  00000+0  49760-3 0  9991", "line2": "2 36686  99.0012 181.5592 0105012  43.8778 317.0710 14.77248655658972"}}, "geometry": {"type": "Point", "coordinates": [8.42124969724693, 21.509128716672166]}}, {"type": "Feature", "properties": {"norad_id": 36687, "name": "FENGYUN 1C DEB", "group": "fengyun-1c-debris", "lat": -5.266311895664974, "lon": -101.87131627056432, "alt_km": 851.6319181546414, "timestamp": "2025-12-18T17:50:15.245151+00:00", "meta": {"OBJECT_NAME": "FENGYUN 1C DEB", "OBJECT_ID": "1999-025DZH", "EPOCH": "2025-12-17T23:51:08.993376", "MEAN_MOTION": 14.04533718, "ECCENTRICITY": 0.00903258, "INCLINATION": 98.7154, "RA_OF_ASC_NODE": 78.2194, "ARG_OF_PERICENTER": 250.4808, "MEAN_ANOMALY": 108.6587, "EPHEMERIS_TYPE": 0, "CLASSIFICATION_TYPE": "U", "NORAD_CAT_ID": 36687, "ELEMENT_SET_NO": 999, "REV_AT_EPOCH": 62796, "BSTAR": 6.2205267e-05, "MEAN_MOTION_DOT": 6e-07, "MEAN_MOTION_DDOT": 0}, "tle": {"line1": "1 36687U 99025DZH 25351.99385409  .00000060  00000+0  62205-4 0  9992", "line2": "2 36687  98.7154  78.2194 0090325 250.4808 108.6587 14.04533718627964"}}, "geometry": {"type": "Point", "coordinates": [-101.87131627056432, -5.266311895664974]}}, {"type": "Feature", "properties": {"norad_id": 36689, "name": "FENGYUN 1C DEB", "group": "fengyun-1c-debris", "lat": 53.761637099531924, "lon": -125.82204126244122, "alt_km": 1137.0367461437445, "timestamp": "2025-12-18T17:50:15.245161+00:00", "meta": {"OBJECT_NAME": "FENGYUN 1C DEB", "OBJECT_ID": "1999-025DZK", "EPOCH": "2025-11-28T10:04:14.213280", "MEAN_MOTION": 13.74189275, "ECCENTRICITY": 0.03131537, "INCLINATION": 98.4796, "RA_OF_ASC_NODE": 227.8431, "ARG_OF_PERICENTER": 334.7216, "MEAN_ANOMALY": 23.8887, "EPHEMERIS_TYPE": 0, "CLASSIFICATION_TYPE": "U", "NORAD_CAT_ID": 36689, "ELEMENT_SET_NO": 999, "REV_AT_EPOCH": 58016, "BSTAR": 0.0027905602, "MEAN_MOTION_DOT": 3.71e-05, "MEAN_MOTION_DDOT": 0}, "tle": {"line1": "1 36689U 99025DZK 25332.41960895  .00003710  00000+0  27906-2 0  9990", "line2": "2 36689  98.4796 227.8431 0313153 334.7216  23.8887 13.74189275580169"}}, "geometry": {"type": "Point", "coordinates": [-125.82204126244122, 53.761637099531924]}}, {"type": "Feature", "properties": {"norad_id": 36691, "name": "FENGYUN 1C DEB", "group": "fengyun-1c-debris", "lat": -48.43567046741435, "lon": 162.73023933463006, "alt_km": 783.7619508478228, "timestamp": "2025-12-18T17:50:15.245171+00:00", "meta": {"OBJECT_NAME": "FENGYUN 1C DEB", "OBJECT_ID": "1999-025DZM", "EPOCH": "2025-12-08T17:50:07.073952", "MEAN_MOTION": 14.07105067, "ECCENTRICITY": 0.01290803, "INCLINATION": 98.6374, "RA_OF_ASC_NODE": 343.0423, "ARG_OF_PERICENTER": 246.8073, "MEAN_ANOMALY": 111.9457, "EPHEMERIS_TYPE": 0, "CLASSIFICATION_TYPE": "U", "NORAD_CAT_ID": 36691, "ELEMENT_SET_NO": 999, "REV_AT_EPOCH": 59553, "BSTAR": 0.0032098608, "MEAN_MOTION_DOT": 5.753e-05, "MEAN_MOTION_DDOT": 0}, "tle": {"line1": "1 36691U 99025DZM 25342.74313743  .00005753  00000+0  32099-2 0  9992", "line2": "2 36691  98.6374 343.0423 0129080 246.8073 111.9457 14.07105067595539"}}, "geometry": {"type": "Point", "coordinates": [162.73023933463006, -48.43567046741435]}}, {"type": "Feature", "properties": {"norad_id": 36692, "name": "FENGYUN 1C DEB", "group": "fengyun-1c-debris", "lat": -63.45073416351266, "lon": -80.04240821425225, "alt_km": 884.506874341012, "timestamp": "2025-12-18T17:50:15.245181+00:00", "meta": {"OBJECT_NAME": "FENGYUN 1C DEB", "OBJECT_ID": "1999-025DZN", "EPOCH": "2025-12-17T12:51:00.369216", "MEAN_MOTION": 13.93475725, "ECCENTRICITY": 0.01147456, "INCLINATION": 99.9951, "RA_OF_ASC_NODE": 257.9863, "ARG_OF_PERICENTER": 0.723, "MEAN_ANOMALY": 359.4074, "EPHEMERIS_TYPE": 0, "CLASSIFICATION_TYPE": "U", "NORAD_CAT_ID": 36692, "ELEMENT_SET_NO": 999, "REV_AT_EPOCH": 59872, "BSTAR": 0.00056558372, "MEAN_MOTION_DOT": 7.31e-06, "MEAN_MOTION_DDOT": 0}, "tle": {"line1": "1 36692U 99025DZN 25351.53542094  .00000731  00000+0  56558-3 0  9991", "line2": "2 36692  99.9951 257.9863 0114745   0.7230 359.4074 13.93475725598723"}}, "geometry": {"type": "Point", "coordinates": [-80.04240821425225, -63.45073416351266]}}, {"type": "Feature", "properties": {"norad_id": 36695, "name": "FENGYUN 1C DEB", "group": "fengyun-1c-debris", "lat": -1.7457032188979944, "lon": 153.62911069249466, "alt_km": 680.8398915728003, "timestamp": "2025-12-18T17:50:15.245191+00:00", "meta": {"OBJECT_NAME": "FENGYUN 1C DEB", "OBJECT_ID": "1999-025DZR", "EPOCH": "2025-12-17T04:25:52.075200", "MEAN_MOTION": 14.43754104, "ECCENTRICITY": 0.02575669, "INCLINATION": 98.2204, "RA_OF_ASC_NODE": 332.3743, "ARG_OF_PERICENTER": 116.9061, "MEAN_ANOMALY": 245.87, "EPHEMERIS_TYPE": 0, "CLASSIFICATION_TYPE": "U", "NORAD_CAT_ID": 36695, "ELEMENT_SET_NO": 999, "REV_AT_EPOCH": 89632, "BSTAR": 0.00014097537, "MEAN_MOTION_DOT": 6.66e-06, "MEAN_MOTION_DDOT": 0}, "tle": {"line1": "1 36695U 99025DZR 25351.18463050  .00000666  00000+0  14098-3 0  9999", "line2": "2 36695  98.2204 332.3743 0257566 116.9061 245.8700 14.43754104896323"}}, "geometry": {"type": "Point", "coordinates": [153.62911069249466, -1.7457032188979944]}}, {"type": "Feature", "properties": {"norad_id": 36696, "name": "FENGYUN 1C DEB", "group": "fengyun-1c-debris", "lat": -29.135258694800438, "lon": 7.086937477702562, "alt_km": 751.1774676200976, "timestamp": "2025-12-18T17:50:15.245201+00:00", "meta": {"OBJECT_NAME": "FENGYUN 1C DEB", "OBJECT_ID": "1999-025DZS", "EPOCH": "2025-12-12T23:29:27.613248", "MEAN_MOTION": 14.39206881, "ECCENTRICITY": 0.00228959, "INCLINATION": 98.9916, "RA_OF_ASC_NODE": 355.9822, "ARG_OF_PERICENTER": 328.4138, "MEAN_ANOMALY": 31.5673, "EPHEMERIS_TYPE": 0, "CLASSIFICATION_TYPE": "U", "NORAD_CAT_ID": 36696, "ELEMENT_SET_NO": 999, "REV_AT_EPOCH": 64399, "BSTAR": 0.0029501232, "MEAN_MOTION_DOT": 9.135e-05, "MEAN_MOTION_DDOT": 0}, "tle": {"line1": "1 36696U 99025DZS 25346.97879182  .00009135  00000+0  29501-2 0  9992", "line2": "2 36696  98.9916 355.9822 0022895 328.4138  31.5673 14.39206881643991"}}, "geometry": {"type": "Point", "coordinates": [7.086937477702562, -29.135258694800438]}}, {"type": "Feature", "properties": {"norad_id": 36699, "name": "FENGYUN 1C DEB", "group": "fengyun-1c-debris", "lat": 40.71336238432537, "lon": -20.355856927499218, "alt_km": 785.2349978571483, "timestamp": "2025-12-18T17:50:15.245211+00:00", "meta": {"OBJECT_NAME": "FENGYUN 1C DEB", "OBJECT_ID": "1999-025DZV", "EPOCH": "2025-12-15T05:20:38.452128", "MEAN_MOTION": 14.24296403, "ECCENTRICITY": 0.00947132, "INCLINATION": 98.5591, "RA_OF_ASC_NODE": 343.661, "ARG_OF_PERICENTER": 122.958, "MEAN_ANOMALY": 238.075, "EPHEMERIS_TYPE": 0, "CLASSIFICATION_TYPE": "U", "NORAD_CAT_ID": 36699, "ELEMENT_SET_NO": 999, "REV_AT_EPOCH": 73362, "BSTAR": 0.00025043284, "MEAN_MOTION_DOT": 5.64e-06, "MEAN_MOTION_DDOT": 0}, "tle": {"line1": "1 36699U 99025DZV 25349.22266727  .00000564  00000+0  25043-3 0  9996", "line2": "2 36699  98.5591 343.6610 0094713 122.9580 238.0750 14.24296403733627"}}, "geometry": {"type": "Point", "coordinates": [-20.355856927499218, 40.71336238432537]}}, {"type": "Feature", "properties": {"norad_id": 36701, "name": "FENGYUN 1C DEB", "group": "fengyun-1c-debris", "lat": -57.34039186515436, "lon": -30.293027002521125, "alt_km": 903.9929860104212, "timestamp": "2025-12-18T17:50:15.245221+00:00", "meta": {"OBJECT_NAME": "FENGYUN 1C DEB", "OBJECT_ID": "1999-025DZX", "EPOCH": "2025-12-17T03:36:27.439776", "MEAN_MOTION": 13.71349788, "ECCENTRICITY": 0.02590644, "INCLINATION": 102.7448, "RA_OF_ASC_NODE": 306.923, "ARG_OF_PERICENTER": 243.4462, "MEAN_ANOMALY": 113.9905, "EPHEMERIS_TYPE": 0, "CLASSIFICATION_TYPE": "U", "NORAD_CAT_ID": 36701, "ELEMENT_SET_NO": 999, "REV_AT_EPOCH": 61199, "BSTAR": 0.0015992707, "MEAN_MOTION_DOT": 1.752e-05, "MEAN_MOTION_DDOT": 0}, "tle": {"line1": "1 36701U 99025DZX 25351.15031759  .00001752  00000+0  15993-2 0  9992", "line2": "2 36701 102.7448 306.9230 0259064 243.4462 113.9905 13.71349788611994"}}, "geometry": {"type": "Point", "coordinates": [-30.293027002521125, -57.34039186515436]}}]}